ATLAS CENTAUR R/B       
1 06155U 72065B   25345.71360988  .00002355  00000+0  32578-3 0  9990
2 06155  35.0010 101.2077 0034049 349.0024  10.9930 14.77404821828242
SL-8 R/B                
1 08459U 75112B   25346.27406971  .00000460  00000+0  16000-3 0  9997
2 08459  74.0592 179.7149 0016596 291.0890  68.8490 14.38144802619308
SL-3 R/B                
1 10114U 77057B   25346.23722530  .00017829  00000+0  40690-3 0  9995
2 10114  97.5686 149.5454 0006499 234.8566 125.2072 15.42928088654836
SEASAT 1                
1 10967U 78064A   25345.78298899  .00000746  00000+0  24719-3 0  9999
2 10967 108.0115 301.0267 0001653 250.1733 109.9234 14.46060370493809
SL-14 R/B               
1 11267U 79011B   25346.25143072  .00000927  00000+0  89368-4 0  9994
2 11267  82.5235 179.5075 0015949 355.1407   4.9655 14.91768683515745
SL-8 R/B                
1 11574U 79089B   25346.21202284  .00000479  00000+0  15299-3 0  9990
2 11574  74.0692 252.9558 0014452  87.5495 272.7316 14.42283429423497
SL-14 R/B               
1 11672U 80005B   25346.20709132  .00000876  00000+0  86249-4 0  9997
2 11672  82.5150  30.2046 0017360  95.0654 265.2547 14.90791078463450
SL-8 R/B                
1 12139U 81003B   25346.14007918  .00020764  00000+0  55038-3 0  9990
2 12139  82.9302  10.7553 0279709 122.2849 240.5811 15.07010240301471
SL-3 R/B                
1 12465U 81046B   25346.23945103  .00015805  00000+0  39805-3 0  9990
2 12465  81.2332  34.5364 0018876 326.2191  33.7847 15.39590916424963
SL-3 R/B                
1 12904U 81103B   25346.26512234  .00009980  00000+0  45837-3 0  9999
2 12904  81.1592 315.9096 0011637 214.4387 145.6091 15.20223860959945
SL-3 R/B                
1 13068U 82013B   25346.24872457  .00007953  00000+0  35391-3 0  9998
2 13068  81.1748 263.1841 0024089 112.4321 247.9465 15.21078918391058
SL-3 R/B                
1 13154U 82039B   25346.24158167  .00004948  00000+0  30409-3 0  9993
2 13154  81.1722 316.6704 0029697 254.0309 105.7644 15.09521674368442
