CCSDS_OMM_VERS = 2.0
CREATION_DATE  = 
ORIGINATOR     = 

OBJECT_NAME    = ATLAS CENTAUR R/B
OBJECT_ID      = 1972-065B
CENTER_NAME    = EARTH
REF_FRAME      = TEME
TIME_SYSTEM    = UTC
MEAN_ELEMENT_THEORY = SGP/SGP4

EPOCH          = 2025-12-11T17:07:35.893632
MEAN_MOTION    = 14.77404821
ECCENTRICITY   = .0034049
INCLINATION    = 35.0010
RA_OF_ASC_NODE = 101.2077
ARG_OF_PERICENTER = 349.0024
MEAN_ANOMALY   = 10.9930

EPHEMERIS_TYPE = 0
CLASSIFICATION_TYPE = U
NORAD_CAT_ID   = 6155
ELEMENT_SET_NO = 999
REV_AT_EPOCH   = 82824
BSTAR          = .325785E-3
MEAN_MOTION_DOT = .2355E-4
MEAN_MOTION_DDOT = 0

CCSDS_OMM_VERS = 2.0
CREATION_DATE  = 
ORIGINATOR     = 

OBJECT_NAME    = SL-8 R/B
OBJECT_ID      = 1975-112B
CENTER_NAME    = EARTH
REF_FRAME      = TEME
TIME_SYSTEM    = UTC
MEAN_ELEMENT_THEORY = SGP/SGP4

EPOCH          = 2025-12-12T06:34:39.622944
MEAN_MOTION    = 14.38144802
ECCENTRICITY   = .00165969
INCLINATION    = 74.0592
RA_OF_ASC_NODE = 179.7149
ARG_OF_PERICENTER = 291.0890
MEAN_ANOMALY   = 68.8490

EPHEMERIS_TYPE = 0
CLASSIFICATION_TYPE = U
NORAD_CAT_ID   = 8459
ELEMENT_SET_NO = 999
REV_AT_EPOCH   = 61930
BSTAR          = .16000473E-3
MEAN_MOTION_DOT = .46E-5
MEAN_MOTION_DDOT = 0

CCSDS_OMM_VERS = 2.0
CREATION_DATE  = 
ORIGINATOR     = 

OBJECT_NAME    = SL-3 R/B
OBJECT_ID      = 1977-057B
CENTER_NAME    = EARTH
REF_FRAME      = TEME
TIME_SYSTEM    = UTC
MEAN_ELEMENT_THEORY = SGP/SGP4

EPOCH          = 2025-12-12T05:41:36.265920
MEAN_MOTION    = 15.42928088
ECCENTRICITY   = .00064992
INCLINATION    = 97.5686
RA_OF_ASC_NODE = 149.5454
ARG_OF_PERICENTER = 234.8566
MEAN_ANOMALY   = 125.2072

EPHEMERIS_TYPE = 0
CLASSIFICATION_TYPE = U
NORAD_CAT_ID   = 10114
ELEMENT_SET_NO = 999
REV_AT_EPOCH   = 65483
BSTAR          = .40689743E-3
MEAN_MOTION_DOT = .17829E-3
MEAN_MOTION_DDOT = 0

CCSDS_OMM_VERS = 2.0
CREATION_DATE  = 
ORIGINATOR     = 

OBJECT_NAME    = SEASAT 1
OBJECT_ID      = 1978-064A
CENTER_NAME    = EARTH
REF_FRAME      = TEME
TIME_SYSTEM    = UTC
MEAN_ELEMENT_THEORY = SGP/SGP4

EPOCH          = 2025-12-11T18:47:30.248736
MEAN_MOTION    = 14.46060370
ECCENTRICITY   = .00016537
INCLINATION    = 108.0115
RA_OF_ASC_NODE = 301.0267
ARG_OF_PERICENTER = 250.1733
MEAN_ANOMALY   = 109.9234

EPHEMERIS_TYPE = 0
CLASSIFICATION_TYPE = U
NORAD_CAT_ID   = 10967
ELEMENT_SET_NO = 999
REV_AT_EPOCH   = 49380
BSTAR          = .24718912E-3
MEAN_MOTION_DOT = .746E-5
MEAN_MOTION_DDOT = 0

CCSDS_OMM_VERS = 2.0
CREATION_DATE  = 
ORIGINATOR     = 

OBJECT_NAME    = SL-14 R/B
OBJECT_ID      = 1979-011B
CENTER_NAME    = EARTH
REF_FRAME      = TEME
TIME_SYSTEM    = UTC
MEAN_ELEMENT_THEORY = SGP/SGP4

EPOCH          = 2025-12-12T06:02:03.614208
MEAN_MOTION    = 14.91768683
ECCENTRICITY   = .00159497
INCLINATION    = 82.5235
RA_OF_ASC_NODE = 179.5075
ARG_OF_PERICENTER = 355.1407
MEAN_ANOMALY   = 4.9655

EPHEMERIS_TYPE = 0
CLASSIFICATION_TYPE = U
NORAD_CAT_ID   = 11267
ELEMENT_SET_NO = 999
REV_AT_EPOCH   = 51574
BSTAR          = .89368234E-4
MEAN_MOTION_DOT = .927E-5
MEAN_MOTION_DDOT = 0

CCSDS_OMM_VERS = 2.0
CREATION_DATE  = 
ORIGINATOR     = 

OBJECT_NAME    = SL-8 R/B
OBJECT_ID      = 1979-089B
CENTER_NAME    = EARTH
REF_FRAME      = TEME
TIME_SYSTEM    = UTC
MEAN_ELEMENT_THEORY = SGP/SGP4

EPOCH          = 2025-12-12T05:05:18.773376
MEAN_MOTION    = 14.42283429
ECCENTRICITY   = .00144523
INCLINATION    = 74.0692
RA_OF_ASC_NODE = 252.9558
ARG_OF_PERICENTER = 87.5495
MEAN_ANOMALY   = 272.7316

EPHEMERIS_TYPE = 0
CLASSIFICATION_TYPE = U
NORAD_CAT_ID   = 11574
ELEMENT_SET_NO = 999
REV_AT_EPOCH   = 42349
BSTAR          = .15299267E-3
MEAN_MOTION_DOT = .479E-5
MEAN_MOTION_DDOT = 0

CCSDS_OMM_VERS = 2.0
CREATION_DATE  = 
ORIGINATOR     = 

OBJECT_NAME    = SL-14 R/B
OBJECT_ID      = 1980-005B
CENTER_NAME    = EARTH
REF_FRAME      = TEME
TIME_SYSTEM    = UTC
MEAN_ELEMENT_THEORY = SGP/SGP4

EPOCH          = 2025-12-12T04:58:12.690048
MEAN_MOTION    = 14.90791078
ECCENTRICITY   = .00173609
INCLINATION    = 82.5150
RA_OF_ASC_NODE = 30.2046
ARG_OF_PERICENTER = 95.0654
MEAN_ANOMALY   = 265.2547

EPHEMERIS_TYPE = 0
CLASSIFICATION_TYPE = U
NORAD_CAT_ID   = 11672
ELEMENT_SET_NO = 999
REV_AT_EPOCH   = 46345
BSTAR          = .86248637E-4
MEAN_MOTION_DOT = .876E-5
MEAN_MOTION_DDOT = 0

CCSDS_OMM_VERS = 2.0
CREATION_DATE  = 
ORIGINATOR     = 

OBJECT_NAME    = SL-8 R/B
OBJECT_ID      = 1981-003B
CENTER_NAME    = EARTH
REF_FRAME      = TEME
TIME_SYSTEM    = UTC
MEAN_ELEMENT_THEORY = SGP/SGP4

EPOCH          = 2025-12-12T03:21:42.841152
MEAN_MOTION    = 15.07010240
ECCENTRICITY   = .0279709
INCLINATION    = 82.9302
RA_OF_ASC_NODE = 10.7553
ARG_OF_PERICENTER = 122.2849
MEAN_ANOMALY   = 240.5811

EPHEMERIS_TYPE = 0
CLASSIFICATION_TYPE = U
NORAD_CAT_ID   = 12139
ELEMENT_SET_NO = 999
REV_AT_EPOCH   = 30147
BSTAR          = .55038169E-3
MEAN_MOTION_DOT = .20764E-3
MEAN_MOTION_DDOT = 0

CCSDS_OMM_VERS = 2.0
CREATION_DATE  = 
ORIGINATOR     = 

OBJECT_NAME    = SL-3 R/B
OBJECT_ID      = 1981-046B
CENTER_NAME    = EARTH
REF_FRAME      = TEME
TIME_SYSTEM    = UTC
MEAN_ELEMENT_THEORY = SGP/SGP4

EPOCH          = 2025-12-12T05:44:48.568992
MEAN_MOTION    = 15.39590916
ECCENTRICITY   = .00188769
INCLINATION    = 81.2332
RA_OF_ASC_NODE = 34.5364
ARG_OF_PERICENTER = 326.2191
MEAN_ANOMALY   = 33.7847

EPHEMERIS_TYPE = 0
CLASSIFICATION_TYPE = U
NORAD_CAT_ID   = 12465
ELEMENT_SET_NO = 999
REV_AT_EPOCH   = 42496
BSTAR          = .39804677E-3
MEAN_MOTION_DOT = .15805E-3
MEAN_MOTION_DDOT = 0

CCSDS_OMM_VERS = 2.0
CREATION_DATE  = 
ORIGINATOR     = 

OBJECT_NAME    = SL-3 R/B
OBJECT_ID      = 1981-103B
CENTER_NAME    = EARTH
REF_FRAME      = TEME
TIME_SYSTEM    = UTC
MEAN_ELEMENT_THEORY = SGP/SGP4

EPOCH          = 2025-12-12T06:21:46.570176
MEAN_MOTION    = 15.20223860
ECCENTRICITY   = .00116373
INCLINATION    = 81.1592
RA_OF_ASC_NODE = 315.9096
ARG_OF_PERICENTER = 214.4387
MEAN_ANOMALY   = 145.6091

EPHEMERIS_TYPE = 0
CLASSIFICATION_TYPE = U
NORAD_CAT_ID   = 12904
ELEMENT_SET_NO = 999
REV_AT_EPOCH   = 95994
BSTAR          = .45836505E-3
MEAN_MOTION_DOT = .998E-4
MEAN_MOTION_DDOT = 0

CCSDS_OMM_VERS = 2.0
CREATION_DATE  = 
ORIGINATOR     = 

OBJECT_NAME    = SL-3 R/B
OBJECT_ID      = 1982-013B
CENTER_NAME    = EARTH
REF_FRAME      = TEME
TIME_SYSTEM    = UTC
MEAN_ELEMENT_THEORY = SGP/SGP4

EPOCH          = 2025-12-12T05:58:09.802848
MEAN_MOTION    = 15.21078918
ECCENTRICITY   = .00240891
INCLINATION    = 81.1748
RA_OF_ASC_NODE = 263.1841
ARG_OF_PERICENTER = 112.4321
MEAN_ANOMALY   = 247.9465

EPHEMERIS_TYPE = 0
CLASSIFICATION_TYPE = U
NORAD_CAT_ID   = 13068
ELEMENT_SET_NO = 999
REV_AT_EPOCH   = 39105
BSTAR          = .35390846E-3
MEAN_MOTION_DOT = .7953E-4
MEAN_MOTION_DDOT = 0

CCSDS_OMM_VERS = 2.0
CREATION_DATE  = 
ORIGINATOR     = 

OBJECT_NAME    = SL-3 R/B
OBJECT_ID      = 1982-039B
CENTER_NAME    = EARTH
REF_FRAME      = TEME
TIME_SYSTEM    = UTC
MEAN_ELEMENT_THEORY = SGP/SGP4

EPOCH          = 2025-12-12T05:47:52.656288
MEAN_MOTION    = 15.09521674
ECCENTRICITY   = .00296976
INCLINATION    = 81.1722
RA_OF_ASC_NODE = 316.6704
ARG_OF_PERICENTER = 254.0309
MEAN_ANOMALY   = 105.7644

EPHEMERIS_TYPE = 0
CLASSIFICATION_TYPE = U
NORAD_CAT_ID   = 13154
ELEMENT_SET_NO = 999
REV_AT_EPOCH   = 36844
BSTAR          = .30408819E-3
MEAN_MOTION_DOT = .4948E-4
MEAN_MOTION_DDOT = 0

